{
  "type": "FeatureCollection",
  "features": [
    {
      "type": "Feature",
      "properties": {
        "norad_id": 30306,
        "name": "FENGYUN 1C DEB",
        "group": "fengyun-1c-debris",
        "lat": 60.53071687124682,
        "lon": 25.823713099926973,
        "alt_km": 811.5002787640888,
        "timestamp": "2025-12-26T11:25:45.469910+00:00",
        "meta_object_name": "FENGYUN 1C DEB",
        "meta_object_id": "1999-025ZT",
        "meta_epoch": "2025-12-25T20:00:41.400000",
        "meta_mean_motion": 14.28266969,
        "meta_eccentricity": 0.0112871,
        "meta_inclination": 98.5854,
        "meta_ra_of_asc_node": 40.6987,
        "meta_arg_of_pericenter": 318.7976,
        "meta_mean_anomaly": 40.4726,
        "meta_ephemeris_type": 0,
        "meta_classification_type": "U",
        "meta_norad_cat_id": 30306,
        "meta_element_set_no": 999,
        "meta_rev_at_epoch": 97868,
        "meta_bstar": 0.00095479,
        "meta_mean_motion_dot": 2.505e-05,
        "meta_mean_motion_ddot": 0,
        "tle_line1": "1 30306U 99025ZT  25359.83381250  .00002505  00000+0  95479-3 0  9999",
        "tle_line2": "2 30306  98.5854  40.6987 0112871 318.7976  40.4726 14.28266969978682"
      },
      "geometry": {
        "type": "Point",
        "coordinates": [
          25.823713099926973,
          60.53071687124682
        ]
      }
    },
    {
      "type": "Feature",
      "properties": {
        "norad_id": 30309,
        "name": "FENGYUN 1C DEB",
        "group": "fengyun-1c-debris",
        "lat": 48.78139137407482,
        "lon": 46.915181311183964,
        "alt_km": 928.943217227582,
        "timestamp": "2025-12-26T11:25:45.469918+00:00",
        "meta_object_name": "FENGYUN 1C DEB",
        "meta_object_id": "1999-025ZW",
        "meta_epoch": "2025-12-26T02:34:23.361312",
        "meta_mean_motion": 13.93530518,
        "meta_eccentricity": 0.0093803,
        "meta_inclination": 99.2243,
        "meta_ra_of_asc_node": 57.2376,
        "meta_arg_of_pericenter": 155.7329,
        "meta_mean_anomaly": 204.8291,
        "meta_ephemeris_type": 0,
        "meta_classification_type": "U",
        "meta_norad_cat_id": 30309,
        "meta_element_set_no": 999,
        "meta_rev_at_epoch": 96219,
        "meta_bstar": 0.00032784,
        "meta_mean_motion_dot": 4.02e-06,
        "meta_mean_motion_ddot": 0,
        "tle_line1": "1 30309U 99025ZW  25360.10721483  .00000402  00000+0  32784-3 0  9994",
        "tle_line2": "2 30309  99.2243  57.2376 0093803 155.7329 204.8291 13.93530518962192"
      },
      "geometry": {
        "type": "Point",
        "coordinates": [
          46.915181311183964,
          48.78139137407482
        ]
      }
    },
    {
      "type": "Feature",
      "properties": {
        "norad_id": 30310,
        "name": "FENGYUN 1C DEB",
        "group": "fengyun-1c-debris",
        "lat": -13.851277995056051,
        "lon": 21.740593598324647,
        "alt_km": 714.0195612769694,
        "timestamp": "2025-12-26T11:25:45.469927+00:00",
        "meta_object_name": "FENGYUN 1C DEB",
        "meta_object_id": "1999-025ZX",
        "meta_epoch": "2025-12-23T18:42:17.307936",
        "meta_mean_motion": 14.0841603,
        "meta_eccentricity": 0.02404585,
        "meta_inclination": 98.6639,
        "meta_ra_of_asc_node": 16.993,
        "meta_arg_of_pericenter": 326.1615,
        "meta_mean_anomaly": 32.4407,
        "meta_ephemeris_type": 0,
        "meta_classification_type": "U",
        "meta_norad_cat_id": 30310,
        "meta_element_set_no": 999,
        "meta_rev_at_epoch": 96887,
        "meta_bstar": 0.00058910425,
        "meta_mean_motion_dot": 1.271e-05,
        "meta_mean_motion_ddot": 0,
        "tle_line1": "1 30310U 99025ZX  25357.77936699  .00001271  00000+0  58910-3 0  9996",
        "tle_line2": "2 30310  98.6639  16.9930 0240458 326.1615  32.4407 14.08416030968870"
      },
      "geometry": {
        "type": "Point",
        "coordinates": [
          21.740593598324647,
          -13.851277995056051
        ]
      }
    },
    {
      "type": "Feature",
      "properties": {
        "norad_id": 30311,
        "name": "FENGYUN 1C DEB",
        "group": "fengyun-1c-debris",
        "lat": 61.53577446386553,
        "lon": -67.07170732456419,
        "alt_km": 876.2630565059835,
        "timestamp": "2025-12-26T11:25:45.469936+00:00",
        "meta_object_name": "FENGYUN 1C DEB",
        "meta_object_id": "1999-025ZY",
        "meta_epoch": "2025-12-25T19:10:31.712160",
        "meta_mean_motion": 13.77900695,
        "meta_eccentricity": 0.01656617,
        "meta_inclination": 99.1388,
        "meta_ra_of_asc_node": 95.0044,
        "meta_arg_of_pericenter": 162.4912,
        "meta_mean_anomaly": 198.2046,
        "meta_ephemeris_type": 0,
        "meta_classification_type": "U",
        "meta_norad_cat_id": 30311,
        "meta_element_set_no": 999,
        "meta_rev_at_epoch": 95140,
        "meta_bstar": 0.00040785949,
        "meta_mean_motion_dot": 4.11e-06,
        "meta_mean_motion_ddot": 0,
        "tle_line1": "1 30311U 99025ZY  25359.79897815  .00000411  00000+0  40786-3 0  9994",
        "tle_line2": "2 30311  99.1388  95.0044 0165661 162.4912 198.2046 13.77900695951406"
      },
      "geometry": {
        "type": "Point",
        "coordinates": [
          -67.07170732456419,
          61.53577446386553
        ]
      }
    },
    {
      "type": "Feature",
      "properties": {
        "norad_id": 30312,
        "name": "FENGYUN 1C DEB",
        "group": "fengyun-1c-debris",
        "lat": -25.948971096074384,
        "lon": 84.72473307656875,
        "alt_km": 752.3113643017468,
        "timestamp": "2025-12-26T11:25:45.469945+00:00",
        "meta_object_name": "FENGYUN 1C DEB",
        "meta_object_id": "1999-025ZZ",
        "meta_epoch": "2025-12-25T19:30:26.789184",
        "meta_mean_motion": 14.46040646,
        "meta_eccentricity": 0.00120601,
        "meta_inclination": 98.8661,
        "meta_ra_of_asc_node": 79.6752,
        "meta_arg_of_pericenter": 174.8617,
        "meta_mean_anomaly": 307.3404,
        "meta_ephemeris_type": 0,
        "meta_classification_type": "U",
        "meta_norad_cat_id": 30312,
        "meta_element_set_no": 999,
        "meta_rev_at_epoch": 98109,
        "meta_bstar": 0.00248316,
        "meta_mean_motion_dot": 8.824e-05,
        "meta_mean_motion_ddot": 0,
        "tle_line1": "1 30312U 99025ZZ  25359.81281006  .00008824  00000+0  24832-2 0  9996",
        "tle_line2": "2 30312  98.8661  79.6752 0012060 174.8617 307.3404 14.46040646981091"
      },
      "geometry": {
        "type": "Point",
        "coordinates": [
          84.72473307656875,
          -25.948971096074384
        ]
      }
    },
    {
      "type": "Feature",
      "properties": {
        "norad_id": 30313,
        "name": "FENGYUN 1C DEB",
        "group": "fengyun-1c-debris",
        "lat": 50.123881225391706,
        "lon": -82.41160973137843,
        "alt_km": 841.8024880699486,
        "timestamp": "2025-12-26T11:25:45.469954+00:00",
        "meta_object_name": "FENGYUN 1C DEB",
        "meta_object_id": "1999-025AAA",
        "meta_epoch": "2025-12-26T01:08:51.391392",
        "meta_mean_motion": 14.2555458,
        "meta_eccentricity": 0.005705,
        "meta_inclination": 98.8741,
        "meta_ra_of_asc_node": 86.3766,
        "meta_arg_of_pericenter": 296.4829,
        "meta_mean_anomaly": 155.3118,
        "meta_ephemeris_type": 0,
        "meta_classification_type": "U",
        "meta_norad_cat_id": 30313,
        "meta_element_set_no": 999,
        "meta_rev_at_epoch": 97279,
        "meta_bstar": 0.0017202,
        "meta_mean_motion_dot": 4.095e-05,
        "meta_mean_motion_ddot": 0,
        "tle_line1": "1 30313U 99025AAA 25360.04781703  .00004095  00000+0  17202-2 0  9992",
        "tle_line2": "2 30313  98.8741  86.3766 0057050 296.4829 155.3118 14.25554580972799"
      },
      "geometry": {
        "type": "Point",
        "coordinates": [
          -82.41160973137843,
          50.123881225391706
        ]
      }
    },
    {
      "type": "Feature",
      "properties": {
        "norad_id": 30314,
        "name": "FENGYUN 1C DEB",
        "group": "fengyun-1c-debris",
        "lat": 33.009619603098045,
        "lon": -175.26290746757581,
        "alt_km": 858.2114627396222,
        "timestamp": "2025-12-26T11:25:45.469963+00:00",
        "meta_object_name": "FENGYUN 1C DEB",
        "meta_object_id": "1999-025AAB",
        "meta_epoch": "2025-12-26T00:59:25.874016",
        "meta_mean_motion": 14.01237639,
        "meta_eccentricity": 0.0142618,
        "meta_inclination": 98.3814,
        "meta_ra_of_asc_node": 189.8335,
        "meta_arg_of_pericenter": 320.3178,
        "meta_mean_anomaly": 38.7621,
        "meta_ephemeris_type": 0,
        "meta_classification_type": "U",
        "meta_norad_cat_id": 30314,
        "meta_element_set_no": 999,
        "meta_rev_at_epoch": 96295,
        "meta_bstar": 0.0011418,
        "meta_mean_motion_dot": 1.837e-05,
        "meta_mean_motion_ddot": 0,
        "tle_line1": "1 30314U 99025AAB 25360.04127169  .00001837  00000+0  11418-2 0  9997",
        "tle_line2": "2 30314  98.3814 189.8335 0142618 320.3178  38.7621 14.01237639962953"
      },
      "geometry": {
        "type": "Point",
        "coordinates": [
          -175.26290746757581,
          33.009619603098045
        ]
      }
    }
  ]
}